start=new Date('2021-08-26T00:00:00.000Z').valueOf();
sats=[{"DECAY_DATE":null,"SEMIMAJOR_AXIS":"6925.352","EPHEMERIS_TYPE":"0","PERIAPSIS":"546.441","BSTAR":"-0.00007094100000","ECCENTRICITY":"0.00011200","MEAN_MOTION_DDOT":"0.0000000000000","RA_OF_ASC_NODE":"199.3076","OBJECT_ID":"2021-024AS","REF_FRAME":"TEME","REV_AT_EPOCH":"2499","COUNTRY_CODE":"US","MEAN_MOTION_DOT":"-0.00001338","NORAD_CAT_ID":"48017","FILE":"3103208","PERIOD":"95.592","CENTER_NAME":"EARTH","OBJECT_NAME":"STARLINK-2239","LAUNCH_DATE":"2021-03-24","MEAN_ANOMALY":"335.8199","TLE_LINE1":"1 48017U 21024AS  21237.88213042 -.00001338  00000-0 -70941-4 0  9994","EPOCH":"2021-08-25T21:10:16.068288","CLASSIFICATION_TYPE":"U","TLE_LINE2":"2 48017  53.0539 199.3076 0001120  24.2842 335.8199 15.06398837 24990","SITE":"AFETR","OBJECT_TYPE":"PAYLOAD","MEAN_MOTION":"15.06398837","APOAPSIS":"547.993","TIME_SYSTEM":"UTC","MEAN_ELEMENT_THEORY":"SGP4","ELEMENT_SET_NO":"999","INCLINATION":"53.0539","GP_ID":"183447280","RCS_SIZE":"LARGE","ARG_OF_PERICENTER":"24.2842"},{"CLASSIFICATION_TYPE":"U","EPOCH":"2021-08-25T16:34:50.321280","TLE_LINE1":"1 48018U 21024AT  21237.69086020  .00000530  00000-0  55554-4 0  9992","MEAN_ANOMALY":"324.4085","LAUNCH_DATE":"2021-03-24","ARG_OF_PERICENTER":"35.6990","RCS_SIZE":"LARGE","GP_ID":"183445530","ELEMENT_SET_NO":"999","INCLINATION":"53.0493","MEAN_ELEMENT_THEORY":"SGP4","TIME_SYSTEM":"UTC","MEAN_MOTION":"15.05587723","APOAPSIS":"550.600","OBJECT_TYPE":"PAYLOAD","SITE":"AFETR","TLE_LINE2":"2 48018  53.0493 199.7447 0001293  35.6990 324.4085 15.05587723 25034","MEAN_MOTION_DDOT":"0.0000000000000","ECCENTRICITY":"0.00012930","BSTAR":"0.00005555400000","PERIAPSIS":"548.808","EPHEMERIS_TYPE":"0","SEMIMAJOR_AXIS":"6927.839","DECAY_DATE":null,"OBJECT_NAME":"STARLINK-2282","CENTER_NAME":"EARTH","PERIOD":"95.644","FILE":"3103208","NORAD_CAT_ID":"48018","COUNTRY_CODE":"US","MEAN_MOTION_DOT":"0.00000530","REV_AT_EPOCH":"2503","REF_FRAME":"TEME","OBJECT_ID":"2021-024AT","RA_OF_ASC_NODE":"199.7447"},{"MEAN_MOTION_DDOT":"0.0000000000000","ECCENTRICITY":"0.00016540","BSTAR":"0.00006726400000","PERIAPSIS":"546.081","SEMIMAJOR_AXIS":"6925.362","DECAY_DATE":null,"EPHEMERIS_TYPE":"0","CENTER_NAME":"EARTH","OBJECT_NAME":"STARLINK-2285","PERIOD":"95.592","FILE":"3103201","NORAD_CAT_ID":"48019","COUNTRY_CODE":"US","MEAN_MOTION_DOT":"0.00000720","OBJECT_ID":"2021-024AU","REV_AT_EPOCH":"2462","REF_FRAME":"TEME","RA_OF_ASC_NODE":"190.6971","CLASSIFICATION_TYPE":"U","EPOCH":"2021-08-25T13:41:47.387040","TLE_LINE1":"1 48019U 21024AU  21237.57068735  .00000720  00000-0  67264-4 0  9995","MEAN_ANOMALY":"295.1511","LAUNCH_DATE":"2021-03-24","ARG_OF_PERICENTER":"64.9650","RCS_SIZE":"LARGE","GP_ID":"183423999","INCLINATION":"53.0566","ELEMENT_SET_NO":"999","APOAPSIS":"548.372","MEAN_MOTION":"15.06395756","OBJECT_TYPE":"PAYLOAD","MEAN_ELEMENT_THEORY":"SGP4","TIME_SYSTEM":"UTC","SITE":"AFETR","TLE_LINE2":"2 48019  53.0566 190.6971 0001654  64.9650 295.1511 15.06395756 24623"},{"LAUNCH_DATE":"2021-03-24","MEAN_ANOMALY":"340.6943","TLE_LINE1":"1 48020U 21024AV  21237.03367021  .00020453  00000-0  14931-3 0  9995","CLASSIFICATION_TYPE":"U","EPOCH":"2021-08-25T00:48:29.106144","TLE_LINE2":"2 48020  53.0467 160.6958 0003748  19.4218 340.6943 15.73267927 25457","SITE":"AFETR","TIME_SYSTEM":"UTC","MEAN_ELEMENT_THEORY":"SGP4","OBJECT_TYPE":"PAYLOAD","MEAN_MOTION":"15.73267927","APOAPSIS":"352.088","ELEMENT_SET_NO":"999","INCLINATION":"53.0467","GP_ID":"183419569","RCS_SIZE":"LARGE","ARG_OF_PERICENTER":"19.4218","EPHEMERIS_TYPE":"0","DECAY_DATE":null,"SEMIMAJOR_AXIS":"6727.702","PERIAPSIS":"347.045","BSTAR":"0.00014931000000","ECCENTRICITY":"0.00037480","MEAN_MOTION_DDOT":"0.0000000000000","RA_OF_ASC_NODE":"160.6958","REV_AT_EPOCH":"2545","REF_FRAME":"TEME","OBJECT_ID":"2021-024AV","MEAN_MOTION_DOT":"0.00020453","COUNTRY_CODE":"US","NORAD_CAT_ID":"48020","FILE":"3103042","PERIOD":"91.529","OBJECT_NAME":"STARLINK-2294","CENTER_NAME":"EARTH"},{"EPOCH":"2021-08-25T03:51:18.130464","CLASSIFICATION_TYPE":"U","MEAN_ANOMALY":"348.0693","LAUNCH_DATE":"2021-03-24","TLE_LINE1":"1 48021U 21024AW  21237.16062651  .00003119  00000-0  26602-4 0  9990","ELEMENT_SET_NO":"999","INCLINATION":"53.0471","GP_ID":"183420320","RCS_SIZE":"LARGE","ARG_OF_PERICENTER":"12.0429","TLE_LINE2":"2 48021  53.0471 160.0621 0004401  12.0429 348.0693 15.73252406 25487","SITE":"AFETR","OBJECT_TYPE":"PAYLOAD","APOAPSIS":"352.572","MEAN_MOTION":"15.73252406","TIME_SYSTEM":"UTC","MEAN_ELEMENT_THEORY":"SGP4","BSTAR":"0.00002660200000","ECCENTRICITY":"0.00044010","MEAN_MOTION_DDOT":"0.0000000000000","DECAY_DATE":null,"SEMIMAJOR_AXIS":"6727.746","EPHEMERIS_TYPE":"0","PERIAPSIS":"346.650","MEAN_MOTION_DOT":"0.00003119","COUNTRY_CODE":"US","NORAD_CAT_ID":"48021","PERIOD":"91.530","FILE":"3103042","OBJECT_NAME":"STARLINK-2301","CENTER_NAME":"EARTH","RA_OF_ASC_NODE":"160.0621","OBJECT_ID":"2021-024AW","REF_FRAME":"TEME","REV_AT_EPOCH":"2548"},{"FILE":"3103208","PERIOD":"95.592","CENTER_NAME":"EARTH","OBJECT_NAME":"STARLINK-2298","COUNTRY_CODE":"US","MEAN_MOTION_DOT":"0.00000357","NORAD_CAT_ID":"48022","REV_AT_EPOCH":"2491","REF_FRAME":"TEME","OBJECT_ID":"2021-024AX","RA_OF_ASC_NODE":"209.2700","ECCENTRICITY":"0.00009980","MEAN_MOTION_DDOT":"0.0000000000000","BSTAR":"0.00004284200000","PERIAPSIS":"546.526","EPHEMERIS_TYPE":"0","DECAY_DATE":null,"SEMIMAJOR_AXIS":"6925.352","RCS_SIZE":"LARGE","ARG_OF_PERICENTER":"48.5123","INCLINATION":"53.0555","ELEMENT_SET_NO":"999","GP_ID":"183446031","TIME_SYSTEM":"UTC","MEAN_ELEMENT_THEORY":"SGP4","OBJECT_TYPE":"PAYLOAD","APOAPSIS":"547.908","MEAN_MOTION":"15.06398958","SITE":"AFETR","TLE_LINE2":"2 48022  53.0555 209.2700 0000998  48.5123 311.5952 15.06398958 24916","EPOCH":"2021-08-25T21:24:53.062848","CLASSIFICATION_TYPE":"U","TLE_LINE1":"1 48022U 21024AX  21237.89228082  .00000357  00000-0  42842-4 0  9998","MEAN_ANOMALY":"311.5952","LAUNCH_DATE":"2021-03-24"},{"CLASSIFICATION_TYPE":"U","EPOCH":"2021-08-25T21:47:27.336192","MEAN_ANOMALY":"301.0944","LAUNCH_DATE":"2021-03-24","TLE_LINE1":"1 48023U 21024AY  21237.90795528 -.00001349  00000-0 -71714-4 0  9999","GP_ID":"183445775","INCLINATION":"53.0542","ELEMENT_SET_NO":"999","ARG_OF_PERICENTER":"59.0138","RCS_SIZE":"LARGE","SITE":"AFETR","TLE_LINE2":"2 48023  53.0542 209.1884 0000945  59.0138 301.0944 15.06396471 24913","MEAN_MOTION":"15.06396471","APOAPSIS":"547.879","OBJECT_TYPE":"PAYLOAD","MEAN_ELEMENT_THEORY":"SGP4","TIME_SYSTEM":"UTC","BSTAR":"-0.00007171400000","MEAN_MOTION_DDOT":"0.0000000000000","ECCENTRICITY":"0.00009450","SEMIMAJOR_AXIS":"6925.359","DECAY_DATE":null,"EPHEMERIS_TYPE":"0","PERIAPSIS":"546.570","NORAD_CAT_ID":"48023","COUNTRY_CODE":"US","MEAN_MOTION_DOT":"-0.00001349","OBJECT_NAME":"STARLINK-2292","CENTER_NAME":"EARTH","FILE":"3103208","PERIOD":"95.592","RA_OF_ASC_NODE":"209.1884","OBJECT_ID":"2021-024AY","REV_AT_EPOCH":"2491","REF_FRAME":"TEME"},{"MEAN_MOTION_DDOT":"0.0000000000000","ECCENTRICITY":"0.00042800","BSTAR":"0.00020799000000","PERIAPSIS":"346.805","SEMIMAJOR_AXIS":"6727.819","DECAY_DATE":null,"EPHEMERIS_TYPE":"0","CENTER_NAME":"EARTH","OBJECT_NAME":"STARLINK-2302","PERIOD":"91.532","FILE":"3103154","NORAD_CAT_ID":"48024","COUNTRY_CODE":"US","MEAN_MOTION_DOT":"0.00028717","OBJECT_ID":"2021-024AZ","REV_AT_EPOCH":"2500","REF_FRAME":"TEME","RA_OF_ASC_NODE":"160.0650","CLASSIFICATION_TYPE":"U","EPOCH":"2021-08-25T03:50:49.545024","TLE_LINE1":"1 48024U 21024AZ  21237.16029566  .00028717  00000-0  20799-3 0  9992","LAUNCH_DATE":"2021-03-24","MEAN_ANOMALY":"344.2465","ARG_OF_PERICENTER":"15.8686","RCS_SIZE":"LARGE","GP_ID":"183424011","INCLINATION":"53.0466","ELEMENT_SET_NO":"999","MEAN_MOTION":"15.73226626","APOAPSIS":"352.564","OBJECT_TYPE":"PAYLOAD","MEAN_ELEMENT_THEORY":"SGP4","TIME_SYSTEM":"UTC","TLE_LINE2":"2 48024  53.0466 160.0650 0004280  15.8686 344.2465 15.73226626 25005","SITE":"AFETR"},{"RCS_SIZE":"LARGE","ARG_OF_PERICENTER":"13.9712","INCLINATION":"53.0466","ELEMENT_SET_NO":"999","GP_ID":"183423507","OBJECT_TYPE":"PAYLOAD","APOAPSIS":"352.396","MEAN_MOTION":"15.73214055","TIME_SYSTEM":"UTC","MEAN_ELEMENT_THEORY":"SGP4","TLE_LINE2":"2 48025  53.0466 159.7437 0003977  13.9712 346.1415 15.73214055 25015","SITE":"AFETR","CLASSIFICATION_TYPE":"U","EPOCH":"2021-08-25T05:22:07.355136","TLE_LINE1":"1 48025U 21024BA  21237.22369624  .00004639  00000-0  37444-4 0  9995","LAUNCH_DATE":"2021-03-24","MEAN_ANOMALY":"346.1415","FILE":"3103154","PERIOD":"91.532","OBJECT_NAME":"STARLINK-2318","CENTER_NAME":"EARTH","COUNTRY_CODE":"US","MEAN_MOTION_DOT":"0.00004639","NORAD_CAT_ID":"48025","OBJECT_ID":"2021-024BA","REV_AT_EPOCH":"2501","REF_FRAME":"TEME","RA_OF_ASC_NODE":"159.7437","ECCENTRICITY":"0.00039770","MEAN_MOTION_DDOT":"0.0000000000000","BSTAR":"0.00003744400000","PERIAPSIS":"347.044","DECAY_DATE":null,"SEMIMAJOR_AXIS":"6727.855","EPHEMERIS_TYPE":"0"},{"RA_OF_ASC_NODE":"214.0727","OBJECT_ID":"2021-024BB","REF_FRAME":"TEME","REV_AT_EPOCH":"2479","MEAN_MOTION_DOT":"0.00000450","COUNTRY_CODE":"US","NORAD_CAT_ID":"48026","PERIOD":"95.695","FILE":"3103208","CENTER_NAME":"EARTH","OBJECT_NAME":"STARLINK-2278","DECAY_DATE":null,"SEMIMAJOR_AXIS":"6930.329","EPHEMERIS_TYPE":"0","PERIAPSIS":"551.381","BSTAR":"0.00005100800000","ECCENTRICITY":"0.00011730","MEAN_MOTION_DDOT":"0.0000000000000","SITE":"AFETR","TLE_LINE2":"2 48026  53.0511 214.0727 0001173  46.0845 314.0240 15.04776504 24794","OBJECT_TYPE":"PAYLOAD","MEAN_MOTION":"15.04776504","APOAPSIS":"553.007","TIME_SYSTEM":"UTC","MEAN_ELEMENT_THEORY":"SGP4","INCLINATION":"53.0511","ELEMENT_SET_NO":"999","GP_ID":"183445531","RCS_SIZE":"LARGE","ARG_OF_PERICENTER":"46.0845","LAUNCH_DATE":"2021-03-24","MEAN_ANOMALY":"314.0240","TLE_LINE1":"1 48026U 21024BB  21237.92102519  .00000450  00000-0  51008-4 0  9990","EPOCH":"2021-08-25T22:06:16.576416","CLASSIFICATION_TYPE":"U"}];
